[{"OBJECT_NAME":"SCS-01 A","OBJECT_ID":"2025-100A","EPOCH":"2026-03-09T23:34:52.624992","MEAN_MOTION":15.20882651,"ECCENTRICITY":0.0023898,"INCLINATION":97.374,"RA_OF_ASC_NODE":143.9086,"ARG_OF_PERICENTER":335.0117,"MEAN_ANOMALY":24.996,"EPHEMERIS_TYPE":0,"CLASSIFICATION_TYPE":"U","NORAD_CAT_ID":63982,"ELEMENT_SET_NO":999,"REV_AT_EPOCH":4556,"BSTAR":0.000529729,"MEAN_MOTION_DOT":0.00011735,"MEAN_MOTION_DDOT":0},{"OBJECT_NAME":"FLOCK 4H-15","OBJECT_ID":"2025-276BE","EPOCH":"2026-03-09T17:00:11.631744","MEAN_MOTION":15.18339872,"ECCENTRICITY":0.00044925,"INCLINATION":97.4287,"RA_OF_ASC_NODE":143.9241,"ARG_OF_PERICENTER":23.8137,"MEAN_ANOMALY":336.3304,"EPHEMERIS_TYPE":0,"CLASSIFICATION_TYPE":"U","NORAD_CAT_ID":66718,"ELEMENT_SET_NO":999,"REV_AT_EPOCH":1531,"BSTAR":0.00037246212,"MEAN_MOTION_DOT":7.584e-5,"MEAN_MOTION_DDOT":0}]
